NORAD_CAT_ID,OBJECT_NAME,OBJECT_TYPE,EPOCH,MEAN_MOTION,ECCENTRICITY,INCLINATION,RA_OF_ASC_NODE,ARG_OF_PERICENTER,MEAN_ANOMALY,BSTAR,MEAN_MOTION_DOT,MEAN_MOTION_DDOT,TLE_LINE0,TLE_LINE1,TLE_LINE2,SEMIMAJOR_AXIS,PERIOD,APOGEE,PERIGEE,DECAYED
54196.0,STARLINK-5237,PAYLOAD,2023-05-27 12:49:34,15.08844219,9.76e-05,53.2166,240.191,95.2494,264.8609,-4.1528e-05,-9.49e-06,0.0,0 STARLINK-5237,1 54196U 22141AR  23147.53442804 -.00000949  00000-0 -41528-4 0  9990,2 54196  53.2166 240.1910 0000976  95.2494 264.8609 15.08844219 32442,6917.867,95.437,540.408,539.057,0.0
54196.0,STARLINK-5237,PAYLOAD,2023-05-28 11:04:58,15.08836666,0.0001056,53.2165,236.029,89.2066,270.9047,6.0336e-05,6.73e-06,0.0,0 STARLINK-5237,1 54196U 22141AR  23148.46179182  .00000673  00000-0  60336-4 0  9999,2 54196  53.2165 236.0290 0001056  89.2066 270.9047 15.08836666 32816,6917.891,95.438,540.486,539.025,0.0
54196.0,STARLINK-5237,PAYLOAD,2023-05-28 12:40:21,15.08838958,0.0001055,53.2165,235.7317,89.0923,271.019,7.9369e-05,9.76e-06,0.0,0 STARLINK-5237,1 54196U 22141AR  23148.52803012  .00000976  00000-0  79369-4 0  9994,2 54196  53.2165 235.7317 0001055  89.0923 271.0190 15.08838958 32593,6917.884,95.438,540.478,539.019,0.0
54196.0,STARLINK-5237,PAYLOAD,2023-05-29 10:55:45,15.08837351,0.0001094,53.2164,231.5701,86.8424,273.2694,5.9982e-05,6.67e-06,0.0,0 STARLINK-5237,1 54196U 22141AR  23149.45539313  .00000667  00000-0  59982-4 0  9993,2 54196  53.2164 231.5701 0001094  86.8424 273.2694 15.08837351 32732,6917.888,95.438,540.51,538.997,0.0
54196.0,STARLINK-5237,PAYLOAD,2023-05-29 22:03:28,15.08836736,0.0001094,53.2162,229.4888,85.0887,275.023,4.3049e-05,3.97e-06,0.0,0 STARLINK-5237,1 54196U 22141AR  23149.91907466  .00000397  00000-0  43049-4 0  9999,2 54196  53.2162 229.4888 0001094  85.0887 275.0230 15.08836736 33032,6917.89,95.438,540.512,538.999,0.0
54196.0,STARLINK-5237,PAYLOAD,2023-05-30 13:57:19,15.08835611,0.0001102,53.2167,226.5149,91.4375,268.6743,3.2119e-05,2.23e-06,0.0,0 STARLINK-5237,1 54196U 22141AR  23150.58147712  .00000223  00000-0  32119-4 0  9998,2 54196  53.2167 226.5149 0001102  91.4375 268.6743 15.08835611 32901,6917.894,95.438,540.521,538.996,0.0
54196.0,STARLINK-5237,PAYLOAD,2023-05-31 10:37:20,15.08838526,0.0001187,53.2174,222.6495,89.1953,270.9175,4.427e-05,4.17e-06,0.0,0 STARLINK-5237,1 54196U 22141AR  23151.44259667  .00000417  00000-0  44270-4 0  9993,2 54196  53.2174 222.6495 0001187  89.1953 270.9175 15.08838526 33262,6917.885,95.438,540.571,538.929,0.0
54196.0,STARLINK-5237,PAYLOAD,2023-05-31 13:48:06,15.08840402,0.0001187,53.2174,222.0547,88.447,271.6658,5.7832e-05,6.33e-06,0.0,0 STARLINK-5237,1 54196U 22141AR  23151.57507518  .00000633  00000-0  57832-4 0  9996,2 54196  53.2174 222.0547 0001187  88.4470 271.6658 15.08840402 33057,6917.879,95.438,540.565,538.923,0.0
54196.0,STARLINK-5237,PAYLOAD,2023-05-31 21:45:02,15.08835674,0.0001193,53.2171,220.5673,86.8005,273.3124,4.3391e-05,4.03e-06,0.0,0 STARLINK-5237,1 54196U 22141AR  23151.90627897  .00000403  00000-0  43391-4 0  9996,2 54196  53.2171 220.5673 0001193  86.8005 273.3124 15.08835674 33108,6917.894,95.438,540.584,538.933,0.0
54196.0,STARLINK-5237,PAYLOAD,2023-06-01 10:28:07,15.08838432,0.0001145,53.2163,218.1892,83.8235,276.2887,4.2455e-05,3.88e-06,0.0,0 STARLINK-5237,1 54196U 22141AR  23152.43619889  .00000388  00000-0  42455-4 0  9999,2 54196  53.2163 218.1892 0001145  83.8235 276.2887 15.08838432 33185,6917.885,95.438,540.542,538.958,0.0
54196.0,STARLINK-5237,PAYLOAD,2023-06-01 21:35:49,15.08840163,0.0001129,53.2165,216.1078,82.8592,277.2529,5.2485e-05,5.48e-06,0.0,0 STARLINK-5237,1 54196U 22141AR  23152.89987761  .00000548  00000-0  52485-4 0  9998,2 54196  53.2165 216.1078 0001129  82.8592 277.2529 15.08840163 33254,6917.88,95.438,540.526,538.964,0.0
54196.0,STARLINK-5237,PAYLOAD,2023-06-01 23:11:12,15.08840292,0.0001126,53.2164,215.8104,82.8567,277.2553,6.003e-05,6.68e-06,0.0,0 STARLINK-5237,1 54196U 22141AR  23152.96611724  .00000668  00000-0  60030-4 0  9997,2 54196  53.2164 215.8104 0001126  82.8567 277.2553 15.08840292 33494,6917.879,95.438,540.523,538.966,0.0
54196.0,STARLINK-5237,PAYLOAD,2023-06-02 10:18:54,15.0883901,0.000117,53.2164,213.7289,81.5833,278.5292,4.363e-05,4.07e-06,0.0,0 STARLINK-5237,1 54196U 22141AR  23153.42979887  .00000407  00000-0  43630-4 0  9994,2 54196  53.2164 213.7289 0001170  81.5833 278.5292 15.08839010 33339,6917.883,95.438,540.558,538.939,0.0
54196.0,STARLINK-5237,PAYLOAD,2023-06-02 21:26:36,15.08841154,0.0001195,53.2165,211.6474,80.4578,279.6549,4.2956e-05,3.96e-06,0.0,0 STARLINK-5237,1 54196U 22141AR  23153.89347769  .00000396  00000-0  42956-4 0  9990,2 54196  53.2165 211.6474 0001195  80.4578 279.6549 15.08841154 33401,6917.877,95.437,540.569,538.915,0.0
54196.0,STARLINK-5237,PAYLOAD,2023-06-03 10:09:41,15.08837617,0.0001199,53.2163,209.2684,80.7709,279.3419,2.9655e-05,1.84e-06,0.0,0 STARLINK-5237,1 54196U 22141AR  23154.42340090  .00000184  00000-0  29655-4 0  9996,2 54196  53.2163 209.2684 0001199  80.7709 279.3419 15.08837617 33714,6917.888,95.438,540.582,538.923,0.0
54196.0,STARLINK-5237,PAYLOAD,2023-06-04 13:11:14,15.08842644,0.0001157,53.2161,204.2116,92.1306,267.9819,4.7506e-05,4.68e-06,0.0,0 STARLINK-5237,1 54196U 22141AR  23155.54947595  .00000468  00000-0  47506-4 0  9993,2 54196  53.2161 204.2116 0001157  92.1306 267.9819 15.08842644 33657,6917.872,95.437,540.538,538.937,0.0
54196.0,STARLINK-5237,PAYLOAD,2023-06-05 01:54:20,15.08835879,0.0001099,53.2155,201.8319,95.1321,264.9796,2.8429e-05,1.65e-06,0.0,0 STARLINK-5237,1 54196U 22141AR  23156.07940032  .00000165  00000-0  28429-4 0  9998,2 54196  53.2155 201.8319 0001099  95.1321 264.9796 15.08835879 33960,6917.893,95.438,540.518,538.998,0.0
54196.0,STARLINK-5237,PAYLOAD,2023-06-05 09:51:15,15.08838594,0.0001107,53.2157,200.345,98.2444,261.8674,3.4332e-05,2.59e-06,0.0,0 STARLINK-5237,1 54196U 22141AR  23156.41059864  .00000259  00000-0  34332-4 0  9994,2 54196  53.2157 200.3450 0001107  98.2444 261.8674 15.08838594 33780,6917.885,95.438,540.515,538.984,0.0
54196.0,STARLINK-5237,PAYLOAD,2023-06-06 08:06:40,15.08835796,0.000113,53.2156,196.1821,97.8821,262.2299,-1.1502e-05,-4.71e-06,0.0,0 STARLINK-5237,1 54196U 22141AR  23157.33796371 -.00000471  00000-0 -11502-4 0  9999,2 54196  53.2156 196.1821 0001130  97.8821 262.2299 15.08835796 34154,6917.893,95.438,540.54,538.977,0.0
54196.0,STARLINK-5237,PAYLOAD,2023-06-06 11:17:26,15.08837868,0.0001116,53.2157,195.5877,93.2628,266.8492,5.1039e-06,-2.07e-06,0.0,0 STARLINK-5237,1 54196U 22141AR  23157.47044222 -.00000207  00000-0  51039-5 0  9991,2 54196  53.2157 195.5877 0001116  93.2628 266.8492 15.08837868 33941,6917.887,95.438,540.524,538.98,0.0
54196.0,STARLINK-5237,PAYLOAD,2023-06-07 11:08:13,15.08838827,0.0001071,53.2158,191.1281,90.0145,270.097,4.4274e-05,4.17e-06,0.0,0 STARLINK-5237,1 54196U 22141AR  23158.46404225  .00000417  00000-0  44274-4 0  9998,2 54196  53.2158 191.1281 0001071  90.0145 270.0970 15.08838827 34329,6917.884,95.438,540.49,539.008,0.0
54196.0,STARLINK-5237,PAYLOAD,2023-06-07 12:43:36,15.08840676,0.0001077,53.2157,190.8306,90.4629,269.6487,5.9011e-05,6.52e-06,0.0,0 STARLINK-5237,1 54196U 22141AR  23158.53028063  .00000652  00000-0  59011-4 0  9994,2 54196  53.2157 190.8306 0001077  90.4629 269.6487 15.08840676 34107,6917.878,95.438,540.488,538.998,0.0
54196.0,STARLINK-5237,PAYLOAD,2023-06-07 19:05:09,15.08836266,0.0001138,53.2166,189.642,94.7067,265.4055,4.0895e-05,3.63e-06,0.0,0 STARLINK-5237,1 54196U 22141AR  23158.79524476  .00000363  00000-0  40895-4 0  9990,2 54196  53.2166 189.6420 0001138  94.7067 265.4055 15.08836266 34140,6917.892,95.438,540.544,538.97,0.0
54196.0,STARLINK-5237,PAYLOAD,2023-06-08 10:59:00,15.08837712,0.0001057,53.2154,186.6668,89.9544,270.1569,4.5834e-05,4.42e-06,0.0,0 STARLINK-5237,1 54196U 22141AR  23159.45764507  .00000442  00000-0  45834-4 0  9991,2 54196  53.2154 186.6668 0001057  89.9544 270.1569 15.08837712 34245,6917.887,95.438,540.484,539.021,0.0
54196.0,STARLINK-5237,PAYLOAD,2023-06-09 01:17:28,15.08837918,0.0001083,53.2153,183.99,90.8285,269.2831,1.392e-05,-6.6e-07,0.0,0 STARLINK-5237,1 54196U 22141AR  23160.05380722 -.00000066  00000-0  13920-4 0  9996,2 54196  53.2153 183.9900 0001083  90.8285 269.2831 15.08837918 34569,6917.887,95.438,540.501,539.003,0.0
54196.0,STARLINK-5237,PAYLOAD,2023-06-09 09:14:24,15.08838664,0.0001062,53.2154,182.5033,90.7331,269.3783,1.7633e-05,-7e-08,0.0,0 STARLINK-5237,1 54196U 22141AR  23160.38500693 -.00000007  00000-0  17633-4 0  9993,2 54196  53.2154 182.5033 0001062  90.7331 269.3783 15.08838664 34386,6917.884,95.438,540.484,539.015,0.0
54196.0,STARLINK-5237,PAYLOAD,2023-06-10 07:29:48,15.0884173,0.000107,53.2158,178.3405,89.3943,270.7172,6.9616e-05,8.2e-06,0.0,0 STARLINK-5237,1 54196U 22141AR  23161.31236362  .00000820  00000-0  69616-4 0  9996,2 54196  53.2158 178.3405 0001070  89.3943 270.7172 15.08841730 34755,6917.875,95.437,540.48,539.0,0.0
54196.0,STARLINK-5237,PAYLOAD,2023-06-10 18:37:30,15.0884076,0.0001051,53.2157,176.2588,89.1821,270.9291,5.4423e-05,5.78e-06,0.0,0 STARLINK-5237,1 54196U 22141AR  23161.77604431  .00000578  00000-0  54423-4 0  9992,2 54196  53.2157 176.2588 0001051  89.1821 270.9291 15.08840760 34593,6917.878,95.438,540.47,539.016,0.0
54196.0,STARLINK-5237,PAYLOAD,2023-06-11 07:20:35,15.08839617,0.0001075,53.2161,173.8804,88.5773,271.5342,4.898e-05,4.92e-06,0.0,0 STARLINK-5237,1 54196U 22141AR  23162.30596560  .00000492  00000-0  48980-4 0  9991,2 54196  53.2161 173.8804 0001075  88.5773 271.5342 15.08839617 34679,6917.882,95.438,540.49,539.003,0.0
54196.0,STARLINK-5237,PAYLOAD,2023-06-12 07:11:22,15.08842448,0.0001097,53.2161,169.4199,88.9254,271.1864,2.3142e-05,8.1e-07,0.0,0 STARLINK-5237,1 54196U 22141AR  23163.29956391  .00000081  00000-0  23142-4 0  9999,2 54196  53.2161 169.4199 0001097  88.9254 271.1864 15.08842448 34827,6917.873,95.437,540.497,538.979,0.0
